[{"OBJECT_NAME":"LUSAT (LO-19)","OBJECT_ID":"1990-005G","EPOCH":"2026-03-09T14:54:14.260896","MEAN_MOTION":14.34087969,"ECCENTRICITY":0.001234,"INCLINATION":98.8938,"RA_OF_ASC_NODE":87.6461,"ARG_OF_PERICENTER":134.6824,"MEAN_ANOMALY":225.5367,"EPHEMERIS_TYPE":0,"CLASSIFICATION_TYPE":"U","NORAD_CAT_ID":20442,"ELEMENT_SET_NO":999,"REV_AT_EPOCH":88812,"BSTAR":8.4338e-5,"MEAN_MOTION_DOT":1.89e-6,"MEAN_MOTION_DDOT":0},{"OBJECT_NAME":"OPS 3367 B","OBJECT_ID":"1964-002C","EPOCH":"2026-03-09T17:40:48.608544","MEAN_MOTION":14.28555137,"ECCENTRICITY":0.00155796,"INCLINATION":98.9814,"RA_OF_ASC_NODE":350.5639,"ARG_OF_PERICENTER":233.0489,"MEAN_ANOMALY":126.9266,"EPHEMERIS_TYPE":0,"CLASSIFICATION_TYPE":"U","NORAD_CAT_ID":735,"ELEMENT_SET_NO":999,"REV_AT_EPOCH":23251,"BSTAR":7.776016e-5,"MEAN_MOTION_DOT":1.48e-6,"MEAN_MOTION_DDOT":0}]
